{"type": "FeatureCollection", "features": [{"type": "Feature", "geometry": {"type": "Polygon", "coordinates": [[[6.5921186, 54.0217368], [6.5928615, 54.0004523], [6.5944147, 53.9994957], [6.6195201, 53.9995209], [6.6230426, 53.9992109], [6.6248846, 54.0002777], [6.6202827, 54.021782], [6.6182756, 54.0226209], [6.5934705, 54.02252], [6.5921186, 54.0217368]]]}, "properties": {"myType": "pixel"}, "id": 3}, {"type": "Feature", "geometry": {"type": "LineString", "coordinates": [[7.1628, 53.6174], [6.623217687247575, 53.99998700880502]]}, "properties": {"myType": "export_cable"}, "id": 2}, {"type": "Feature", "geometry": {"type": "Point", "coordinates": [6.623217687247575, 53.99998700880502]}, "properties": {"myType": "offshore_substation", "elevation": -27}, "id": 1}, {"type": "Feature", "geometry": {"type": "Point", "coordinates": [6.594502, 54.000309]}, "properties": {"myType": "turbine", "elevation": -27, "is_onshore": false}, "id": 1}, {"type": "Feature", "geometry": {"type": "Point", "coordinates": [6.61983, 54.000356]}, "properties": {"myType": "turbine", "elevation": -27, "is_onshore": false}, "id": 2}, {"type": "Feature", "geometry": {"type": "Point", "coordinates": [6.607478, 54.000359]}, "properties": {"myType": "turbine", "elevation": -27, "is_onshore": false}, "id": 3}, {"type": "Feature", "geometry": {"type": "Point", "coordinates": [6.594206, 54.00753]}, "properties": {"myType": "turbine", "elevation": -27, "is_onshore": false}, "id": 4}, {"type": "Feature", "geometry": {"type": "Point", "coordinates": [6.607156, 54.007531]}, "properties": {"myType": "turbine", "elevation": -28, "is_onshore": false}, "id": 5}, {"type": "Feature", "geometry": {"type": "Point", "coordinates": [6.619361, 54.007573]}, "properties": {"myType": "turbine", "elevation": -28, "is_onshore": false}, "id": 6}, {"type": "Feature", "geometry": {"type": "Point", "coordinates": [6.618887, 54.014302]}, "properties": {"myType": "turbine", "elevation": -28, "is_onshore": false}, "id": 7}, {"type": "Feature", "geometry": {"type": "Point", "coordinates": [6.593844, 54.014332]}, "properties": {"myType": "turbine", "elevation": -28, "is_onshore": false}, "id": 8}, {"type": "Feature", "geometry": {"type": "Point", "coordinates": [6.606706, 54.014358]}, "properties": {"myType": "turbine", "elevation": -28, "is_onshore": false}, "id": 9}, {"type": "Feature", "geometry": {"type": "Point", "coordinates": [6.618351, 54.021682]}, "properties": {"myType": "turbine", "elevation": -28, "is_onshore": false}, "id": 10}, {"type": "Feature", "geometry": {"type": "Point", "coordinates": [6.593502, 54.021656]}, "properties": {"myType": "turbine", "elevation": -30, "is_onshore": false}, "id": 11}, {"type": "Feature", "geometry": {"type": "Point", "coordinates": [6.606342, 54.021697]}, "properties": {"myType": "turbine", "elevation": -28, "is_onshore": false}, "id": 12}]}